[{"OBJECT_NAME":"COSMOS 2583","OBJECT_ID":"2025-026C","EPOCH":"2026-03-09T19:42:40.304448","MEAN_MOTION":14.94821455,"ECCENTRICITY":0.0006043,"INCLINATION":81.9959,"RA_OF_ASC_NODE":175.853,"ARG_OF_PERICENTER":76.2523,"MEAN_ANOMALY":283.9369,"EPHEMERIS_TYPE":0,"CLASSIFICATION_TYPE":"U","NORAD_CAT_ID":62904,"ELEMENT_SET_NO":999,"REV_AT_EPOCH":5935,"BSTAR":0.00033674,"MEAN_MOTION_DOT":3.688e-5,"MEAN_MOTION_DDOT":0},{"OBJECT_NAME":"CZ-6A DEB","OBJECT_ID":"2022-151RK","EPOCH":"2026-03-09T04:16:52.342176","MEAN_MOTION":15.00981633,"ECCENTRICITY":0.00383954,"INCLINATION":98.6273,"RA_OF_ASC_NODE":143.4522,"ARG_OF_PERICENTER":188.2396,"MEAN_ANOMALY":171.8199,"EPHEMERIS_TYPE":0,"CLASSIFICATION_TYPE":"U","NORAD_CAT_ID":54922,"ELEMENT_SET_NO":999,"REV_AT_EPOCH":17321,"BSTAR":0.0056092635,"MEAN_MOTION_DOT":0.00073321,"MEAN_MOTION_DDOT":0}]
